[{"OBJECT_NAME":"HAWK-10B","OBJECT_ID":"2024-149CF","EPOCH":"2026-03-09T22:24:07.674624","MEAN_MOTION":14.96175068,"ECCENTRICITY":0.00063882,"INCLINATION":97.6865,"RA_OF_ASC_NODE":146.0046,"ARG_OF_PERICENTER":71.247,"MEAN_ANOMALY":288.9444,"EPHEMERIS_TYPE":0,"CLASSIFICATION_TYPE":"U","NORAD_CAT_ID":60545,"ELEMENT_SET_NO":999,"REV_AT_EPOCH":8514,"BSTAR":0.00020768682,"MEAN_MOTION_DOT":2.283e-5,"MEAN_MOTION_DDOT":0},{"OBJECT_NAME":"STARLINK-34454","OBJECT_ID":"2025-126P","EPOCH":"2026-03-09T22:22:27.532704","MEAN_MOTION":14.98342465,"ECCENTRICITY":0.00025639,"INCLINATION":70.0032,"RA_OF_ASC_NODE":34.0251,"ARG_OF_PERICENTER":261.2501,"MEAN_ANOMALY":98.8368,"EPHEMERIS_TYPE":0,"CLASSIFICATION_TYPE":"U","NORAD_CAT_ID":64357,"ELEMENT_SET_NO":999,"REV_AT_EPOCH":4071,"BSTAR":0.00052411451,"MEAN_MOTION_DOT":6.168e-5,"MEAN_MOTION_DDOT":0}]
